OBJECT_NAME,OBJECT_ID,EPOCH,MEAN_MOTION,ECCENTRICITY,INCLINATION,RA_OF_ASC_NODE,ARG_OF_PERICENTER,MEAN_ANOMALY,EPHEMERIS_TYPE,CLASSIFICATION_TYPE,NORAD_CAT_ID,ELEMENT_SET_NO,REV_AT_EPOCH,BSTAR,MEAN_MOTION_DOT,MEAN_MOTION_DDOT
STARLINK-4014,2022-053AE,2026-07-08T08:58:50.487744,15.08845386,.00012028,53.1609,322.1256,79.9238,280.1889,0,U,52684,999,22935,.69792446E-4,.823E-5,0
STARLINK-4029,2022-053AF,2026-07-08T08:27:01.935936,15.08861143,.00011107,53.1609,322.2238,98.5066,261.6052,0,U,52685,999,22933,.22614233E-3,.3315E-4,0
STARLINK-4005,2022-053AG,2026-07-08T14:07:37.263936,15.08836672,.00011166,53.1617,321.4429,91.6668,268.4451,0,U,52686,999,22937,.41508354E-4,.373E-5,0
STARLINK-3981,2022-053AH,2026-07-08T08:21:46.097280,15.08813563,.00013568,53.1606,322.2415,97.9668,262.1478,0,U,52687,999,22933,.40972744E-3,.6234E-4,0
STARLINK-4032,2022-053AJ,2026-07-07T10:01:02.572032,15.08821466,.00011036,53.1607,326.3102,100.2113,259.9003,0,U,52688,999,22919,.308499E-4,.203E-5,0
STARLINK-4078,2022-053AK,2026-07-08T14:00:03.000384,15.82784429,.00097788,53.2005,212.4342,23.2003,316.7973,0,U,52689,999,588,.12399945E-2,.276183E-2,0
STARLINK-4035,2022-053AL,2026-07-08T08:32:22.747776,15.08824724,.00013603,53.1619,322.2099,101.4013,258.7132,0,U,52690,999,22933,.14527587E-3,.2024E-4,0
STARLINK-3993,2022-053AN,2026-07-08T09:14:43.051200,15.08825615,.00013121,53.1600,321.8055,93.6840,266.4301,0,U,52692,999,22937,.10836668E-3,.1436E-4,0
STARLINK-3946,2022-053AP,2026-07-08T14:11:31.388064,15.08825888,.00012184,53.1621,321.1532,84.4694,275.6436,0,U,52693,999,22940,.15497234E-3,.2178E-4,0
STARLINK-4072,2022-053AQ,2026-07-08T14:00:03.000384,15.24383527,.00011481,53.1591,319.9110,72.0354,103.6551,0,U,52694,999,580,.72102684E-3,.17599E-3,0
STARLINK-4041,2022-053AR,2026-07-08T09:06:07.276032,15.08827374,.00014358,53.1615,326.9008,74.5309,285.5841,0,U,52695,999,22931,.24128773E-3,.3553E-4,0
STARLINK-4018,2022-053AT,2026-07-08T09:44:36.488832,15.08828224,.00011611,53.1621,326.9852,88.5486,271.5638,0,U,52697,999,22931,.10151818E-3,.1328E-4,0
STARLINK-4030,2022-053AU,2026-07-07T08:32:57.360480,15.08830245,.00012124,53.1614,331.6931,98.7539,261.3589,0,U,52698,999,22914,.56832629E-4,.616E-5,0
STARLINK-3987,2022-053AV,2026-07-08T14:00:03.000384,15.25948375,.00006675,53.1605,314.9760,73.4448,151.2763,0,U,52699,999,579,.99610113E-3,.25656E-3,0
STARLINK-4034,2022-053AW,2026-07-08T09:00:44.588448,15.08853037,.00013447,53.1613,326.7617,77.2954,282.8187,0,U,52700,999,22931,.40106502E-3,.6103E-4,0
STARLINK-4033,2022-053AY,2026-07-08T09:43:13.850688,15.08830740,.00012157,53.1618,327.0171,99.6113,260.5015,0,U,52702,999,22931,.69309723E-4,.815E-5,0
STARLINK-4020,2022-053AZ,2026-07-08T14:00:03.000384,15.18335429,.00005902,53.1587,310.7093,81.8985,283.4781,0,U,52703,999,575,.63428064E-3,.12888E-3,0
STARLINK-3999,2022-053BA,2026-07-08T14:00:03.000384,15.13935495,.00008126,53.1600,311.0101,118.9023,4.6534,0,U,52704,999,555,.51313257E-3,.9117E-4,0
STARLINK-3844,2022-053BB,2026-07-08T14:00:03.000384,15.19496968,.00019015,53.1590,310.7751,99.4527,205.5011,0,U,52705,999,539,.90104788E-3,.19095E-3,0
STARLINK-3970,2022-053BC,2026-07-08T14:00:03.000384,15.18756686,.00011164,53.1591,310.7240,0.8641,309.8289,0,U,52706,999,555,.10217263E-2,.21237E-3,0
STARLINK-4007,2022-053BD,2026-07-07T08:35:26.524032,15.11396425,.00004709,53.2155,316.1197,121.9326,238.1714,0,U,52707,999,22945,.82737614E-3,.13862E-3,0
STARLINK-3962,2022-053BE,2026-07-08T14:00:03.000384,15.18980449,.00007938,53.1600,310.6584,129.2569,88.8531,0,U,52708,999,539,.91649067E-3,.19136E-3,0
STARLINK-4091,2022-062A,2026-07-08T11:20:38.653440,15.08825018,.00011263,53.1588,211.8727,84.1542,275.9578,0,U,52830,999,22401,.36078586E-4,.286E-5,0
STARLINK-4089,2022-062B,2026-07-08T11:10:00.324192,15.08845200,.00011643,53.1584,211.7113,70.6427,289.4690,0,U,52831,999,22401,.13992627E-3,.194E-4,0
STARLINK-4083,2022-062C,2026-07-08T07:53:57.458400,15.08829706,.00012362,53.1588,212.3230,76.1206,283.9923,0,U,52832,999,22399,.50190521E-4,.511E-5,0
STARLINK-4086,2022-062D,2026-07-08T07:48:38.979360,15.08824012,.00010987,53.1585,212.3396,79.0140,281.0975,0,U,52833,999,22399,.48734646E-4,.488E-5,0
STARLINK-4108,2022-062E,2026-07-08T10:48:49.670496,15.08823514,.00012245,53.1590,211.7777,90.6214,269.4918,0,U,52834,999,22401,.38823802E-4,.33E-5,0
STARLINK-4080,2022-062F,2026-07-08T10:43:32.041632,15.08820648,.00012631,53.1590,211.7954,90.2252,269.8884,0,U,52835,999,22401,.50978893E-4,.523E-5,0
STARLINK-4043,2022-062G,2026-07-08T14:00:03.000384,15.51994389,.00014428,53.2201,192.6532,73.6464,215.0623,0,U,52836,999,591,.16229971E-3,.9479E-4,0
STARLINK-4036,2022-062H,2026-07-08T08:52:13.545408,15.08828365,.00010403,53.1587,212.1448,80.6976,279.4133,0,U,52837,999,22400,.4289184E-4,.395E-5,0
STARLINK-4092,2022-062J,2026-07-08T10:32:54.903840,15.08836806,.00008545,53.1591,211.8182,58.0358,302.0716,0,U,52838,999,22401,.32843608E-4,.235E-5,0
STARLINK-4048,2022-062K,2026-07-08T08:41:37.349376,15.08829180,.00011082,53.1582,212.1760,84.7728,275.3390,0,U,52839,999,22400,.20253621E-4,.34E-6,0
STARLINK-4049,2022-062L,2026-07-08T14:00:03.000384,15.60665023,.00013166,53.2143,188.9306,83.3718,322.2858,0,U,52840,999,588,-.33095876E-2,-.270784E-2,0
STARLINK-4065,2022-062M,2026-07-08T08:25:44.458464,15.08822125,.00013185,53.1578,212.2239,86.2965,273.8177,0,U,52841,999,22400,.56473208E-4,.611E-5,0
STARLINK-4046,2022-062N,2026-07-08T11:57:41.287392,15.08826524,.00009801,53.1579,211.4875,74.0922,286.0177,0,U,52842,999,22402,.31699347E-4,.217E-5,0
STARLINK-4188,2022-062P,2026-07-08T08:15:07.406208,15.08825918,.00006151,53.1595,212.2569,66.9193,293.1863,0,U,52843,999,22400,.21685574E-4,.57E-6,0
STARLINK-4208,2022-062Q,2026-07-08T14:00:03.000384,15.13015583,.00020071,53.1599,211.1394,33.0971,131.6045,0,U,52844,999,574,.27703771E-2,.49539E-3,0
STARLINK-4168,2022-062R,2026-07-08T08:20:26.087424,15.08831948,.00011453,53.1588,212.3091,87.2553,272.8570,0,U,52845,999,22400,.50911041E-4,.522E-5,0
STARLINK-4212,2022-062S,2026-07-08T09:57:11.319840,15.08832036,.00011996,53.1587,211.9485,77.9449,282.1677,0,U,52846,999,22401,.3753972E-5,-.228E-5,0
STARLINK-4206,2022-062T,2026-07-08T11:15:17.815680,15.08828809,.00015616,53.1605,211.6931,112.7942,247.3215,0,U,52847,999,22402,-.16250257E-3,-.2873E-4,0
STARLINK-4202,2022-062U,2026-07-08T08:31:00.644448,15.08836093,.00011663,53.1595,212.2080,97.0303,263.0821,0,U,52848,999,22400,.10570319E-3,.1395E-4,0
STARLINK-4197,2022-062V,2026-07-07T01:42:57.106656,15.08824208,.00004981,53.1583,207.9749,76.0552,284.0495,0,U,52849,999,22394,-.10238479E-3,-.1916E-4,0
STARLINK-4187,2022-062W,2026-07-08T10:34:21.655488,15.08827025,.00013542,53.1587,212.1802,76.1282,283.9860,0,U,52850,999,22401,.40792896E-4,.361E-5,0
STARLINK-3809,2022-062X,2026-07-08T14:00:03.000384,15.35377628,.00012828,53.1695,199.3635,59.2614,116.4431,0,U,52851,999,569,-.417683E-5,-.526E-5,0
STARLINK-4184,2022-062Y,2026-07-08T08:00:34.084512,15.08823479,.00011174,53.1590,202.3042,80.5425,279.5693,0,U,52852,999,22413,.42412609E-4,.387E-5,0
STARLINK-4189,2022-062Z,2026-07-08T14:00:03.000384,15.73270328,.00013502,53.2112,191.7423,78.8672,169.1071,0,U,52853,999,586,.823165E-2,.1296665E-1,0
STARLINK-4204,2022-062AA,2026-07-08T07:44:40.100640,15.08825659,.00012714,53.1596,202.3530,79.3886,280.7249,0,U,52854,999,22413,.53624509E-4,.565E-5,0
STARLINK-4209,2022-062AB,2026-07-08T14:00:03.000384,15.24676456,.00000768,53.1601,200.6496,210.7171,102.1619,0,U,52855,999,580,.27107696E-2,.68159E-3,0
STARLINK-4201,2022-062AC,2026-07-08T07:40:44.731488,15.08832614,.00009994,53.1592,202.4160,82.5395,277.5710,0,U,52856,999,22413,.51198866E-4,.527E-5,0
STARLINK-4199,2022-062AD,2026-07-08T07:18:09.430848,15.08835145,.00011261,53.1584,202.4356,83.7339,276.3781,0,U,52857,999,22413,.50669811E-4,.519E-5,0
STARLINK-4198,2022-062AE,2026-07-08T10:44:41.372448,15.08944099,.00022699,53.1569,201.8161,93.8642,266.2609,0,U,52858,999,22415,.94933848E-3,.14897E-3,0
STARLINK-4196,2022-062AF,2026-07-08T07:12:52.153632,15.08829009,.00010351,53.1590,202.4513,82.5746,277.5363,0,U,52859,999,22413,.42469413E-4,.388E-5,0
STARLINK-4191,2022-062AG,2026-07-08T10:34:11.892288,15.08861433,.00024263,53.1581,201.8208,91.2757,268.8513,0,U,52860,999,22415,.27975419E-3,.4169E-4,0
STARLINK-4112,2022-062AH,2026-07-08T10:34:06.472416,15.31699282,.00009221,53.1611,198.5972,63.2243,296.8852,0,U,52861,999,22420,.99143758E-4,.2713E-4,0
STARLINK-4010,2022-062AJ,2026-07-08T14:00:03.000384,15.34167315,.00010917,53.1692,199.2760,76.1025,303.2500,0,U,52862,999,575,.10782165E-1,.380135E-2,0
STARLINK-4270,2022-062AK,2026-07-08T12:41:12.518304,15.10470901,.00012366,53.1601,201.1728,73.1888,286.9239,0,U,52863,999,22417,.54650627E-4,.617E-5,0
STARLINK-4267,2022-062AL,2026-07-08T10:13:01.542720,15.08845961,.00032659,53.1584,201.8915,86.9534,273.1831,0,U,52864,999,22415,.21337605E-3,.311E-4,0
STARLINK-4274,2022-062AM,2026-07-08T09:51:51.025536,15.08826592,.0002905,53.1585,201.9608,87.3893,272.7431,0,U,52865,999,22415,.65705603E-4,.757E-5,0
STARLINK-4272,2022-062AN,2026-07-08T13:12:55.384128,15.09051961,.00013983,53.1601,201.3279,86.5839,273.5312,0,U,52866,999,22417,.19173259E-2,.30537E-3,0
STARLINK-4126,2022-062AP,2026-07-08T14:00:03.000384,15.35386845,.00010719,53.1598,199.1648,79.5613,138.0129,0,U,52867,999,564,-.12386672E-4,-.812E-5,0
STARLINK-4261,2022-062AQ,2026-07-08T09:57:09.678240,15.08820644,.00011637,53.1589,201.9683,84.4066,275.7058,0,U,52868,999,22415,.3707356E-4,.302E-5,0
STARLINK-4266,2022-062AR,2026-07-08T14:00:03.000384,15.24167373,.00021446,53.1605,190.6853,89.8523,99.2068,0,U,52869,999,574,.22994609E-2,.56803E-3,0
STARLINK-4207,2022-062AT,2026-07-08T14:00:03.000384,15.35220113,.00012435,53.1589,189.4978,80.9518,61.7088,0,U,52871,999,579,.11847517E-2,.40933E-3,0
STARLINK-4213,2022-062AU,2026-07-08T10:02:00.605184,15.29361653,.00012369,53.1610,190.0889,79.9618,280.1522,0,U,52872,999,22431,.10674224E-3,.2726E-4,0
